#dP2019  4  7  0  0  0.00000000      96 __u+U IGS08 FIT  IAC
## 2048      0.00000000   900.00000000 58580 0.0000000000000
+   96   C01C02C03C04C05C06C07C08C09C10C11C12C13C14C16E01E02
+        E03E04E05E07E08E09E11E12E13E14E15E18E19E21E24E25E26
+        E27E30E31E36G01G02G03G04G05G06G07G08G09G10G11G12G13
+        G14G15G16G17G18G19G20G21G22G23G24G25G26G27G28G29G30
+        G31G32J01J02J03R01R02R03R04R05R07R08R09R10R11R13R14
+        R15R16R17R18R19R20R21R22R23R24R26  0  0  0  0  0  0
++        12 11 12 12 12  8  8  8  8  8  7  7  8  7  8  4  4
++         4  4  4  4  4  4  4  4  4  4  4  5  4  4  4  4  5
++         4  4  4  5  3  3  3  4  3  3  3  3  3  3  3  3  3
++         3  3  3  3  3  3  3  3  3  3  3  3  3  3  3  3  3
++         3  3  9  9  9  5  5  5  5  5  5  5  5  5  5  6  5
++         5  6  5  5  5  6  5  5  5  6  8  0  0  0  0  0  0
%c M  cc GPS ccc cccc cccc cccc cccc ccccc ccccc ccccc ccccc
%c cc cc ccc ccc cccc cccc cccc cccc ccccc ccccc ccccc ccccc
%f  1.2500000  1.025000000  0.00000000000  0.000000000000000
%f  0.0000000  0.000000000  0.00000000000  0.000000000000000
%i    0    0    0    0      0      0      0      0         0
%i    0    0    0    0      0      0      0      0         0
/* INFORMATION & ANALYSIS CENTER (IAC)            FINAL DATA
/* S/V CLOCKS ARE ALIGNED TO GPS & GLONASS TIME RESPECTIVELY
/* USING THE BROADCAST EPHEMERIS                            
/* PCV:IGS14_2038 OL/AL:FES2004  NONE     YN ORB:CoN CLK:CoN
*  2019 04 07 15 15  0.00000000
PC01 -32330.438183  27049.048388   -559.812566    429.383883
PC02   4385.183543  41944.110155   1130.846909   -425.202362
PC03 -14856.003161  39486.986002    350.969512     85.097292
PC04 -39627.194305  14368.854645    157.235469     46.504044
PC05  21899.772019  36023.650178   1165.362070   -210.292830
PC06 -21728.397968  36291.011986  -1969.853728    645.592665
PC07  -8013.386622  29758.118464 -28447.995750   -286.820539
PC08 -20296.744383  18766.739208  31833.565558    142.025375
PC09 -11248.259482  36986.042983 -17039.567360    667.419691
PC10   4077.908746  36630.476003 -19999.587567   -642.846924
PC11 -24748.105361  11946.778748  -4634.380267    -89.763713
PC12 -12410.473551  -9964.382937 -22848.428729    557.594805
PC13  -3662.185814  23214.605321  35051.158343   -638.917389
PC14 -16108.864206  -2510.697727  22711.032007    698.591861
PC16 -17533.613476  37744.079376  -7348.732936   -508.686690
PE01 -13043.182748   9794.631755 -24706.059040   -578.729663
PE02  13011.118001  -9824.415836  24698.676127     54.886909
PE03  16974.745131 -20670.939974 -12686.725763   -152.597740
PE04  -6110.935890  28452.498383  -5410.845645   -256.532035
PE05  17977.461084   -696.348154 -23500.041521     78.189881
PE07  -8467.505939 -19588.272442  20525.997052   -164.167790
PE08   5830.233038 -28494.696389   5535.915110   6376.104194
PE09   8521.045336  19447.878273 -20609.597723   6476.628837
PE11  16333.101208  11610.202102  21777.581637   5709.373805
PE12  -6097.597905  17068.691099  23415.709084   6456.129789
PE13 -16245.584483 -11527.244866 -21888.828137    385.280018
PE14  11232.971376   9663.098269  18027.128436   -520.269869
PE15   5612.134237 -17004.750987 -23555.452111    914.611589
PE18 -16761.417384 -12387.674621 -25098.045323   -619.632550
PE19 -17458.532402  19144.978561  14324.267820     -7.230497
PE21 -22556.171170  -9460.691607 -16679.119194   -527.912760
PE24  18707.141169  22941.123110   -762.700736   6144.837696
PE25  22560.793113   9515.257137  16630.647251   1841.788316
PE26 -28663.052458    411.163130  -7379.104873   4709.311613
PE27 -18628.833150 -22972.039701   1152.959387    494.735538
PE30  -3940.876080 -23150.665455  17998.293077   4970.208961
PE31   3780.198488  22977.168826 -18272.076726    863.211058
PE36  28644.152999   -703.030657   7414.672677    727.085794
PG01 -17394.785169 -13595.677904 -15172.617474   -196.795897
PG02  -6049.092759  14852.917915  21760.481389   -183.169677
PG03 -12611.475417 -22664.918327   5872.173669    187.975879
PG04 -20064.003389   4968.621598  16694.032134    145.637857
PG05    167.079362  23597.008683  11866.883565      1.153872
PG06 -18825.341425   8356.797420  16833.348212    236.562162
PG07 -25651.586307  -7218.022609   3250.281625     -0.230503
PG08    336.767454 -19644.115304 -17737.155576   -139.047531
PG09 -17644.962712   -607.652265  19803.849881    432.753109
PG10  14222.541371  -5222.989629 -21752.672932     78.748652
PG11 -12314.883695 -12893.354831 -20161.788404   -630.942208
PG12  10398.201274  24001.599225   4923.569225    253.352446
PG13  -9444.917578  21141.104569 -13088.285837    -68.731133
PG14  18825.242478 -18567.660296   -645.791527    -85.399393
PG15   3602.596234  18951.552345 -18353.734229   -319.613803
PG16    840.691387 -24007.975496  10636.734847    -30.948368
PG17 -20802.506168  13302.278864  -9259.395028     35.448957
PG18  -7781.672145 -15655.914620 -20518.423627     41.997059
PG19 -19888.597250  17596.925115  -1991.257809   -333.396092
PG20  18159.549223   4438.751903 -19022.887815    523.779470
PG21  26301.678115   2918.059141   -188.081290   -217.127519
PG22  -9574.033881 -24726.495389  -1807.970690   -679.296046
PG23 -10488.381037 -11912.907114  21590.032085   -191.113609
PG24  14156.147242  14589.445553 -17414.724800    -64.447155
PG25  16133.017125  15193.913767  14620.890954   -742.812876
PG26   7251.244298 -17543.374350  18483.829581    169.821955
PG27  10053.498729 -22402.255466  -9824.944728   -103.128873
PG28 -14086.800087   3285.390888 -21670.119212    767.253911
PG29  13941.563504   6212.093272  21709.578989    231.058384
PG30 -25318.803343    601.512199  -8289.550265    -82.281891
PG31  18265.552047  -8706.134086  17429.408450     46.704939
PG32  19783.926933 -16103.335290  -7135.631650   -143.682921
PJ01 -25530.920957  27540.348027  24205.964555   -329.625263
PJ02 -24131.515158  16256.928627 -26142.948807      1.113365
PJ03 -27472.276145  31878.628202   1486.170674     -0.334476
PR01  -5592.391490 -18982.140385  16110.602529     41.976688
PR02 -11169.937073   1603.788673  22921.406616    362.554668
PR03  -9439.925053  18928.835354  14332.725571     -6.644380
PR04  -1888.845810  25257.431296  -3081.033915    301.559792
PR05   6151.034507  17190.369081 -17809.823556     25.665445
PR07   9265.612561 -19271.298365 -13841.583151    -17.861055
PR08   2237.613920 -25292.043982   2460.757910     18.331771
PR09  19576.849542   5840.420321  15240.202532     63.207168
PR10   9550.054283  -5949.416945  22859.204913     47.109726
PR11  -7072.458360 -16542.519817  18110.869605    -62.201494
PR13 -20151.924347  -6947.398792 -14035.276794    -22.174600
PR14  -9651.755511   6243.088321 -22766.369593     37.688567
PR15   6355.563503  16134.650133 -18694.598391    101.167671
PR16  19109.648410  16568.078057  -3798.546077     10.356471
PR17 -21104.011058  12230.144160   7428.357281    218.390829
PR18  -7775.313333  13145.982214  20467.730162    -11.203200
PR19   9693.157518   7116.624124  22497.843488    -24.207962
PR20  22983.067292  -3721.527340  10366.851786   -374.204226
PR21  20839.362849 -12360.440685  -7999.023430    -41.051272
PR22   5005.258088 -12494.839859 -21629.581393    -13.323126
PR23 -14485.858156  -4194.551013 -20579.876428    220.251664
PR24 -23412.185211   5085.705114  -8811.471744   -179.080149
PR26  22058.150737  -2768.871608  12537.529207      5.688878
EOF
